[{"OBJECT_NAME":"SNAP-3 JIMI","OBJECT_ID":"2015-058M","EPOCH":"2026-03-09T15:09:34.376832","MEAN_MOTION":15.01135599,"ECCENTRICITY":0.0105534,"INCLINATION":64.7662,"RA_OF_ASC_NODE":174.484,"ARG_OF_PERICENTER":96.511,"MEAN_ANOMALY":264.8035,"EPHEMERIS_TYPE":0,"CLASSIFICATION_TYPE":"U","NORAD_CAT_ID":40975,"ELEMENT_SET_NO":999,"REV_AT_EPOCH":9927,"BSTAR":0.00051665,"MEAN_MOTION_DOT":7.303e-5,"MEAN_MOTION_DDOT":0},{"OBJECT_NAME":"TRANSPORTER-15 OBJECT CN","OBJECT_ID":"2025-276CN","EPOCH":"2026-03-09T04:35:33.344160","MEAN_MOTION":15.18977527,"ECCENTRICITY":5.071e-5,"INCLINATION":97.4304,"RA_OF_ASC_NODE":143.5648,"ARG_OF_PERICENTER":336.0158,"MEAN_ANOMALY":24.1053,"EPHEMERIS_TYPE":0,"CLASSIFICATION_TYPE":"U","NORAD_CAT_ID":66750,"ELEMENT_SET_NO":999,"REV_AT_EPOCH":1524,"BSTAR":0.00028330364,"MEAN_MOTION_DOT":5.857e-5,"MEAN_MOTION_DDOT":0}]
