SNAP-3 JIMI             
1 40975U 15058M   26068.63164788  .00007303  00000+0  51665-3 0  9997
2 40975  64.7662 174.4840 0105534  96.5110 264.8035 15.01135599 99270
TRANSPORTER-15 OBJECT CN
1 66750U 25276CN  26068.19135815  .00005857  00000+0  28330-3 0  9994
2 66750  97.4304 143.5648 0000507 336.0158  24.1053 15.18977527 15241
